[
    {
        "Altitude(m)": 607911.0242885896,
        "Argument of Periapsis(deg)": 0.0,
        "Eccentricity": 0.0,
        "Inclination(deg)": 60.0,
        "Latitude(deg)": -14.293030214616255,
        "Longitude(deg)": -106.557358424754,
        "Mean Anomaly(deg)": -163.63639999999998,
        "RAAN(deg)": 165.0,
        "Satellite Name": "Test1 738",
        "Satellite Number": 738,
        "Semi-Major Axis(m)": 6980739.136638005,
        "Time(s)": 0
    },
    {
        "Altitude(m)": 608060.2584232843,
        "Argument of Periapsis(deg)": 0.00010418945913296404,
        "Eccentricity": 0.0,
        "Inclination(deg)": 60.0,
        "Latitude(deg)": -14.826691729563333,
        "Longitude(deg)": -106.26874910325411,
        "Mean Anomaly(deg)": -163.0162938545382,
        "RAAN(deg)": 164.99957995086024,
        "Satellite Name": "Test1 738",
        "Satellite Number": 738,
        "Semi-Major Axis(m)": 6980739.136638005,
        "Time(s)": 10
    },
    {
        "Altitude(m)": 608211.9227593086,
        "Argument of Periapsis(deg)": 0.0002083789182659281,
        "Eccentricity": 0.0,
        "Inclination(deg)": 60.0,
        "Latitude(deg)": -15.359837023460496,
        "Longitude(deg)": -105.97853098294331,
        "Mean Anomaly(deg)": -162.39618770907637,
        "RAAN(deg)": 164.9991599017205,
        "Satellite Name": "Test1 738",
        "Satellite Number": 738,
        "Semi-Major Axis(m)": 6980739.136638005,
        "Time(s)": 20
    },
    {
        "Altitude(m)": 608365.9692150103,
        "Argument of Periapsis(deg)": 0.00031256837739889213,
        "Eccentricity": 0.0,
        "Inclination(deg)": 60.0,
        "Latitude(deg)": -15.892444887151361,
        "Longitude(deg)": -105.68663659622082,
        "Mean Anomaly(deg)": -161.77608156361455,
        "RAAN(deg)": 164.99873985258077,
        "Satellite Name": "Test1 738",
        "Satellite Number": 738,
        "Semi-Major Axis(m)": 6980739.136638005,
        "Time(s)": 30
    },
    {
        "Altitude(m)": 608522.3485111907,
        "Argument of Periapsis(deg)": 0.0004167578365318562,
        "Eccentricity": 0.0,
        "Inclination(deg)": 60.0,
        "Latitude(deg)": -16.424493779218306,
        "Longitude(deg)": -105.39299695646754,
        "Mean Anomaly(deg)": -161.15597541815274,
        "RAAN(deg)": 164.99831980344103,
        "Satellite Name": "Test1 738",
        "Satellite Number": 738,
        "Semi-Major Axis(m)": 6980739.136638005,
        "Time(s)": 40
    },
    {
        "Altitude(m)": 608681.0101924404,
        "Argument of Periapsis(deg)": 0.0005209472956648203,
        "Eccentricity": 0.0,
        "Inclination(deg)": 60.0,
        "Latitude(deg)": -16.955961809961025,
        "Longitude(deg)": -105.09754252271753,
        "Mean Anomaly(deg)": -160.53586927269086,
        "RAAN(deg)": 164.99789975430127,
        "Satellite Name": "Test1 738",
        "Satellite Number": 738,
        "Semi-Major Axis(m)": 6980739.136638005,
        "Time(s)": 50
    },
    {
        "Altitude(m)": 608841.9026489848,
        "Argument of Periapsis(deg)": 0.0006251367547977843,
        "Eccentricity": 0.0,
        "Inclination(deg)": 60.0,
        "Latitude(deg)": -17.48682672489565,
        "Longitude(deg)": -104.80020265061707,
        "Mean Anomaly(deg)": -159.91576312722904,
        "RAAN(deg)": 164.99747970516154,
        "Satellite Name": "Test1 738",
        "Satellite Number": 738,
        "Semi-Major Axis(m)": 6980739.136638005,
        "Time(s)": 60
    },
    {
        "Altitude(m)": 609004.9731391047,
        "Argument of Periapsis(deg)": 0.0007293262139307483,
        "Eccentricity": 0.0,
        "Inclination(deg)": 60.0,
        "Latitude(deg)": -18.017065887750594,
        "Longitude(deg)": -104.50090504252155,
        "Mean Anomaly(deg)": -159.2956569817672,
        "RAAN(deg)": 164.99705965602178,
        "Satellite Name": "Test1 738",
        "Satellite Number": 738,
        "Semi-Major Axis(m)": 6980739.136638005,
        "Time(s)": 70
    },
    {
        "Altitude(m)": 609170.1678121056,
        "Argument of Periapsis(deg)": 0.0008335156730637124,
        "Eccentricity": 0.0,
        "Inclination(deg)": 60.0,
        "Latitude(deg)": -18.546656262933343,
        "Longitude(deg)": -104.19957670958004,
        "Mean Anomaly(deg)": -158.67555083630538,
        "RAAN(deg)": 164.99663960688207,
        "Satellite Name": "Test1 738",
        "Satellite Number": 738,
        "Semi-Major Axis(m)": 6980739.136638005,
        "Time(s)": 80
    },
    {
        "Altitude(m)": 609337.4317318007,
        "Argument of Periapsis(deg)": 0.0009377051321966765,
        "Eccentricity": 0.0,
        "Inclination(deg)": 60.0,
        "Latitude(deg)": -19.075574397447138,
        "Longitude(deg)": -103.89614342003864,
        "Mean Anomaly(deg)": -158.0554446908435,
        "RAAN(deg)": 164.9962195577423,
        "Satellite Name": "Test1 738",
        "Satellite Number": 738,
        "Semi-Major Axis(m)": 6980739.136638005,
        "Time(s)": 90
    },
    {
        "Altitude(m)": 609506.7089005142,
        "Argument of Periapsis(deg)": 0.0010418945913296407,
        "Eccentricity": 0.0,
        "Inclination(deg)": 60.0,
        "Latitude(deg)": -19.60379640223036,
        "Longitude(deg)": -103.59052914661433,
        "Mean Anomaly(deg)": -157.43533854538168,
        "RAAN(deg)": 164.99579950860257,
        "Satellite Name": "Test1 738",
        "Satellite Number": 738,
        "Semi-Major Axis(m)": 6980739.136638005,
        "Time(s)": 100
    },
    {
        "Altitude(m)": 609677.9422835915,
        "Argument of Periapsis(deg)": 0.0011460840504626045,
        "Eccentricity": 0.0,
        "Inclination(deg)": 60.0,
        "Latitude(deg)": -20.131297932891744,
        "Longitude(deg)": -103.28265702579742,
        "Mean Anomaly(deg)": -156.81523239991986,
        "RAAN(deg)": 164.9953794594628,
        "Satellite Name": "Test1 738",
        "Satellite Number": 738,
        "Semi-Major Axis(m)": 6980739.136638005,
        "Time(s)": 110
    },
    {
        "Altitude(m)": 609851.073834389,
        "Argument of Periapsis(deg)": 0.0012502735095955685,
        "Eccentricity": 0.0,
        "Inclination(deg)": 60.0,
        "Latitude(deg)": -20.658054169817625,
        "Longitude(deg)": -102.97244880331367,
        "Mean Anomaly(deg)": -156.19512625445805,
        "RAAN(deg)": 164.99495941032308,
        "Satellite Name": "Test1 738",
        "Satellite Number": 738,
        "Semi-Major Axis(m)": 6980739.136638005,
        "Time(s)": 120
    },
    {
        "Altitude(m)": 610026.0445197707,
        "Argument of Periapsis(deg)": 0.0013544629687285324,
        "Eccentricity": 0.0,
        "Inclination(deg)": 60.0,
        "Latitude(deg)": -21.184039797620834,
        "Longitude(deg)": -102.6598242786098,
        "Mean Anomaly(deg)": -155.57502010899626,
        "RAAN(deg)": 164.99453936118334,
        "Satellite Name": "Test1 738",
        "Satellite Number": 738,
        "Semi-Major Axis(m)": 6980739.136638005,
        "Time(s)": 130
    },
    {
        "Altitude(m)": 610202.7943460236,
        "Argument of Periapsis(deg)": 0.0014586524278614966,
        "Eccentricity": 0.0,
        "Inclination(deg)": 60.0,
        "Latitude(deg)": -21.709228983904254,
        "Longitude(deg)": -102.34470226122052,
        "Mean Anomaly(deg)": -154.95491396353438,
        "RAAN(deg)": 164.9941193120436,
        "Satellite Name": "Test1 738",
        "Satellite Number": 738,
        "Semi-Major Axis(m)": 6980739.136638005,
        "Time(s)": 140
    },
    {
        "Altitude(m)": 610381.2623852629,
        "Argument of Periapsis(deg)": 0.0015628418869944607,
        "Eccentricity": 0.0,
        "Inclination(deg)": 60.0,
        "Latitude(deg)": -22.23359535730967,
        "Longitude(deg)": -102.02700001326257,
        "Mean Anomaly(deg)": -154.3348078180726,
        "RAAN(deg)": 164.99369926290385,
        "Satellite Name": "Test1 738",
        "Satellite Number": 738,
        "Semi-Major Axis(m)": 6980739.136638005,
        "Time(s)": 150
    },
    {
        "Altitude(m)": 610561.3868022474,
        "Argument of Periapsis(deg)": 0.0016670313461274247,
        "Eccentricity": 0.0,
        "Inclination(deg)": 60.0,
        "Latitude(deg)": -22.75711198482263,
        "Longitude(deg)": -101.7066326909215,
        "Mean Anomaly(deg)": -153.71470167261074,
        "RAAN(deg)": 164.9932792137641,
        "Satellite Name": "Test1 738",
        "Satellite Number": 738,
        "Semi-Major Axis(m)": 6980739.136638005,
        "Time(s)": 160
    },
    {
        "Altitude(m)": 610743.1048816465,
        "Argument of Periapsis(deg)": 0.0017712208052603888,
        "Eccentricity": 0.0,
        "Inclination(deg)": 60.0,
        "Latitude(deg)": -23.2797513483003,
        "Longitude(deg)": -101.38351429780482,
        "Mean Anomaly(deg)": -153.0945955271489,
        "RAAN(deg)": 164.99285916462438,
        "Satellite Name": "Test1 738",
        "Satellite Number": 738,
        "Semi-Major Axis(m)": 6980739.136638005,
        "Time(s)": 170
    },
    {
        "Altitude(m)": 610926.3530556769,
        "Argument of Periapsis(deg)": 0.001875410264393353,
        "Eccentricity": 0.0,
        "Inclination(deg)": 60.0,
        "Latitude(deg)": -23.80148532019353,
        "Longitude(deg)": -101.05755712441356,
        "Mean Anomaly(deg)": -152.47448938168705,
        "RAAN(deg)": 164.99243911548464,
        "Satellite Name": "Test1 738",
        "Satellite Number": 738,
        "Semi-Major Axis(m)": 6980739.136638005,
        "Time(s)": 180
    },
    {
        "Altitude(m)": 611111.066932178,
        "Argument of Periapsis(deg)": 0.0019795997235263173,
        "Eccentricity": 0.0,
        "Inclination(deg)": 60.0,
        "Latitude(deg)": -24.322285138428914,
        "Longitude(deg)": -100.72867118661253,
        "Mean Anomaly(deg)": -151.8543832362252,
        "RAAN(deg)": 164.99201906634488,
        "Satellite Name": "Test1 738",
        "Satellite Number": 738,
        "Semi-Major Axis(m)": 6980739.136638005,
        "Time(s)": 190
    }
]